[{"OBJECT_NAME":"QIANFAN-74","OBJECT_ID":"2025-046B","EPOCH":"2026-03-09T21:50:25.727136","MEAN_MOTION":13.50999675,"ECCENTRICITY":0.00019365,"INCLINATION":88.9751,"RA_OF_ASC_NODE":310.9083,"ARG_OF_PERICENTER":79.176,"MEAN_ANOMALY":280.9609,"EPHEMERIS_TYPE":0,"CLASSIFICATION_TYPE":"U","NORAD_CAT_ID":63160,"ELEMENT_SET_NO":999,"REV_AT_EPOCH":5924,"BSTAR":0.0002341947,"MEAN_MOTION_DOT":1.63e-6,"MEAN_MOTION_DDOT":0},{"OBJECT_NAME":"EXPLORER 27","OBJECT_ID":"1965-032A","EPOCH":"2026-03-09T23:12:04.681440","MEAN_MOTION":13.38918893,"ECCENTRICITY":0.02416141,"INCLINATION":41.1827,"RA_OF_ASC_NODE":81.8208,"ARG_OF_PERICENTER":150.1427,"MEAN_ANOMALY":211.3357,"EPHEMERIS_TYPE":0,"CLASSIFICATION_TYPE":"U","NORAD_CAT_ID":1328,"ELEMENT_SET_NO":999,"REV_AT_EPOCH":97503,"BSTAR":4.7969514e-5,"MEAN_MOTION_DOT":-5.2e-7,"MEAN_MOTION_DDOT":0}]
